ONEWEB-0545             
1 54647U 22166F   25355.22822312  .00000088  00000+0  18180-3 0  9991
2 54647  87.9226 279.4816 0002117  83.1671 276.9704 13.21827826147991
ONEWEB-0580             
1 54648U 22166G   25355.50469021  .00000088  00000+0  18234-3 0  9997
2 54648  87.9226 279.4256 0001970  85.6138 274.5221 13.21826522148071
ONEWEB-0582             
1 54649U 22166H   25355.24468487  .00000055  00000+0  10224-3 0  9999
2 54649  87.9228 279.4704 0002099  87.9150 272.2225 13.21826580148011
ONEWEB-0583             
1 54650U 22166J   25355.33190191 -.00000053  00000+0 -15968-3 0  9995
2 54650  87.9223 279.4774 0001906  77.5308 282.6039 13.21825609148032
ONEWEB-0584             
1 54651U 22166K   25355.50303898  .00000066  00000+0  12873-3 0  9999
2 54651  87.9225 279.4300 0001903  87.0821 273.0531 13.21825426148042
ONEWEB-0585             
1 54652U 22166L   25355.22493840  .00000113  00000+0  24134-3 0  9992
2 54652  87.9224 279.4699 0001679  73.3178 286.8140 13.21825515148010
ONEWEB-0586             
1 54653U 22166M   25355.23810008  .00000055  00000+0  10165-3 0  9997
2 54653  87.9223 279.4927 0001881  78.6105 281.5241 13.21823338148012
ONEWEB-0587             
1 54654U 22166N   25355.32367204 -.00000016  00000+0 -71024-4 0  9994
2 54654  87.9234 279.4322 0001491  64.2631 295.8656 13.21826863148188
